TEVEL2-3                
1 63218U 25052J   26068.64540225  .00020365  00000+0  69446-3 0  9991
2 63218  97.3994 324.7775 0004761 105.7353 254.4413 15.30377031 54855
STARLINK-34838          
1 65343U 25189W   26068.70122398  .00020043  00000+0  68697-3 0  9997
2 65343  53.1606 207.0316 0001031  73.3677 286.7437 15.30201971 31113
